#dP2021 11 29  0  0  0.00000000      96 __u+U ITR00 FIT  IAC
## 2186  86400.00000000   900.00000000 59547 0.0000000000000
+  127   C01C02C03C04C05C06C07C08C09C10C11C12C13C14C16C19C20
+        C21C22C23C24C25C26C27C28C29C30C32C33C34C35C36C37C38
+        C39C40C41C42C43C44C45C46C59C60E01E02E03E04E05E07E08
+        E09E11E12E13E14E15E18E19E21E24E25E26E27E30E31E33E36
+        G01G02G03G04G05G06G07G08G09G10G12G13G14G15G16G17G18
+        G19G20G21G22G23G24G25G26G27G28G29G30G31G32J01J02J03
+        J07R01R02R03R04R05R06R07R08R09R10R11R12R13R14R15R16
+        R17R18R19R20R21R22R23R24  0  0  0  0  0  0  0  0  0
++        13 12  0 13 12  9  9 10  9  9  9  9 10  9  9  7  7
++         7  7  7  7  7  7  7  7  7  7  7  7  7  7  7  7  8
++         8  8  7  7  7  7  7  7  0 13  4  4  4  4  5  4  4
++         5  4  4  5  4  4  5  4  4  4  4  4  4  4  4  4  5
++         3  4  4  4  4  4  3  3  4  3  4  3  4  4  4  4  3
++         4  4  4  4  3  4  4  4  3  5  4  3  4  4  8  8  8
++        14  7  6  6  6  6 13  6  6  6 13  8  5  7  6  6  7
++         6  6  7  7  6  7 13  6  0  0  0  0  0  0  0  0  0
%c M  cc GPS ccc cccc cccc cccc cccc ccccc ccccc ccccc ccccc
%c cc cc ccc ccc cccc cccc cccc cccc ccccc ccccc ccccc ccccc
%f  0.0000000  0.000000000  0.00000000000  0.000000000000000
%f  0.0000000  0.000000000  0.00000000000  0.000000000000000
%i    0    0    0    0      0      0      0      0         0
%i    0    0    0    0      0      0      0      0         0
/* INFORMATION & ANALYSIS CENTER (IAC)            RAPID DATA
/* S/V CLOCKS ARE ALIGNED TO GNSS TIME                      
/* G:C1WC2W R:C1PC2P E:C1XC5X C:C2IC6I J:C1CC2S             
/* PCV:IGS14_2178 OL/AL:FES2004  NONE     YN ORB:CoN CLK:CoN
*  2021 11 29 15 30  0.00000000
PC01 -34340.749185  24494.904023    152.921633   -397.044361
PC02   4314.952284  41891.612905   -929.504152    852.384677
PC03      0.000000      0.000000      0.000000 999999.999999
PC04 -39631.286704  14412.954395    500.842537    266.489373
PC05  21859.891696  36009.745600  -1323.052490    317.582649
PC06   -225.076264  33477.223579 -25552.689785    559.885172
PC07 -14399.538409  26692.543886  29263.874785    180.789187
PC08 -14346.137594  39228.031201  -6327.028093    -65.182904
PC09   4905.599838  36379.519452 -20011.256295   -307.113690
PC10  -4481.632183  27317.540370  31992.012055    135.610649
PC11 -16790.565342 -21735.831287   4879.889681   -363.498516
PC12  -5363.867767 -24345.596872 -12473.436179   -421.755438
PC13 -10047.348067  39631.212032 -10776.448170   -193.552050
PC14 -18596.917892 -11241.364863  17494.214165    515.480516
PC16  -4259.485135  30134.325345 -28956.843492      6.411380
PC19  25459.720007   5621.201607  -9946.171188    929.027830
PC20  10745.430705  14273.265427 -21436.888062   -791.920905
PC21  11362.635059 -14850.705313  20727.112437   -941.416834
PC22  26013.555587  -6549.115125   7722.379863   -971.032597
PC23 -19286.549100  13313.742641 -15154.969140   -963.518583
PC24  -1514.269073 -22470.741960 -16464.728488   -956.141247
PC25 -15438.839840  -5297.343820 -22642.153521   -817.453524
PC26  11141.900824 -25494.491512  -1863.011947    814.908806
PC27  -2604.204458  20476.349485  18758.896226    637.237451
PC28 -15811.835387   4152.798472  22621.655307      3.032087
PC29  20308.873869  13947.544350 -13109.511061    480.878103
PC30  12589.422437  24468.934743   4577.963191    487.503598
PC32 -11312.583339  14926.612433 -20679.625013   -958.857596
PC33 -25429.027808  -5564.834106  10041.832636   -966.067158
PC34 -13134.546508 -24353.647735  -3711.789317   -525.955479
PC35  15988.498512  -4216.309065 -22478.051359     23.160853
PC36  15069.988571   6172.209700  22684.262856   -817.374511
PC37 -12390.824403  25007.390898    863.148694   -901.138759
PC38 -19013.744781  37613.138855   3133.932196    192.994053
PC39  -7310.399773  26785.059562 -31704.931107     34.165318
PC40 -21585.573809  20139.160781  30051.685037    222.078943
PC41 -26158.444477   6386.214580  -7305.182013   -915.472582
PC42  -9719.948593 -14594.414384  21741.583737   -937.952895
PC43 -20250.258910 -14538.887784  12558.611845   -957.620829
PC44   2152.168499 -20517.792944 -18810.788384    481.826662
PC45  19177.538054 -13525.829180  15080.596446    613.750561
PC46   2437.762792  21758.996760  17330.535182    -34.176678
PC59      0.000000      0.000000      0.000000 999999.999999
PC60   7300.685748  41519.412598   1034.499444     -0.408452
PE01    682.307737  18409.222931  23177.267782   -527.437062
PE02   -868.624493 -18321.948781 -23223.328235    263.546146
PE03 -12530.562481 -20074.569902  17764.849333   -501.114588
PE04  26182.711485  13746.942565  -1272.119437   -910.084841
PE05   8737.200104 -14733.516533  24134.100032   -230.253331
PE07 -24643.429557    883.977634 -16372.375279   -612.260799
PE08 -26380.570983 -13386.163843    873.336818   5897.056828
PE09  24503.218854  -1045.904035  16576.518151   5446.993224
PE11  15272.499210  -7419.604499 -24249.617658   4990.886738
PE12  14576.500043  15603.491337 -20490.971645   4885.706798
PE13 -15307.167872   6776.271541  24421.188590    424.189938
PE14 -15342.103337   5601.728811  16785.920283  -1657.252371
PE15 -14542.984051 -15653.806565  20494.058411    778.159258
PE18  21135.481169  -7834.157982 -23445.021882  -1822.222733
PE19  10087.543932  19985.212992 -19365.694734    439.731918
PE21 -17242.597115  21084.867635  11605.249025   -702.390791
PE24  26283.068186 -10779.538593   8256.028555  -1252.749210
PE25  17426.331421 -21030.397082 -11386.911383   -555.206402
PE26  -6649.682558  25734.030152  13047.823122   -512.029238
PE27 -26199.783016  11747.043827  -7222.974696   -175.733718
PE30 -18856.946222  -5528.852162 -22147.027899    -69.471041
PE31  19665.863888   4452.839891  21678.253431   -488.704699
PE33   5195.528048  28793.344404  -4480.015951   -462.002293
PE36   7065.794241 -25118.667194 -13965.834248   -296.902811
PG01 -13075.954166  14389.286263  17658.970376    497.514861
PG02  13900.003181   8897.386830 -20131.745122   -643.906031
PG03 -22916.260416  13027.181183  -2879.252553    -26.552249
PG04 -15643.531356   6277.035599 -20543.336149   -200.588690
PG05  23814.058453  -3223.969475 -11640.550294    -62.716039
PG06   6214.251596  22661.466055 -12254.170887    129.914907
PG07  -5680.628843  25142.952676  -4834.446626    284.590904
PG08 -22471.784543  -3248.213444  14034.317646    -46.113144
PG09  -4417.104408  15266.717244 -21351.201695   -361.223563
PG10  -1341.982223 -15639.496923  21508.658082   -257.146755
PG12  24283.772569 -10505.562304  -1443.307248   -133.455960
PG13  22096.326663  11693.289430   9043.615000    221.915867
PG14    431.345380  16063.655899  21136.516067    -46.841446
PG15  22704.161610    395.771463  13636.733894   -102.869902
PG16 -22958.557447  -1671.993090 -13896.174785   -432.307027
PG17   8380.026262  20012.413292  15742.849247    540.568204
PG18   5550.879336 -25567.644883  -4253.183827    287.869500
PG19  15610.961281  20140.397060   7533.531291     85.649828
PG20  17847.699370   4683.782547 -19028.171324    517.878914
PG21 -15315.183080   4665.612915  21801.544178    152.397787
PG22 -24006.093393   9314.498818   6214.423123   -453.236161
PG23  10956.194909 -18010.779464  16083.530966     27.409267
PG24  14443.305524 -10106.014751  19468.059275    271.423114
PG25  17271.408730 -16859.665849 -11033.588046    248.133432
PG26 -12956.720840 -10347.754119 -20865.242804    160.150089
PG27 -23349.124616 -12023.624343   4968.874929   -225.081791
PG28   8049.993421  13186.099630  22126.693802    453.165668
PG29   9197.344539 -11545.410122 -22119.472655   -447.268320
PG30   1104.328914  25926.398960   5095.683259   -495.368874
PG31  -7891.521924 -20825.994864 -14218.638314   -152.583879
PG32 -13093.944964 -19595.838410  12544.486378    -28.298615
PJ01 -32038.472091  13503.910306 -19255.197277    117.008560
PJ02 -29326.507643  30151.322527   7643.657527     -0.215805
PJ03 -25205.068562  24139.051871  28760.241630     -7.680907
PJ07 -25379.463736  33677.177854     -3.976609     -0.023459
PR01 -20774.635169  -8368.774923  12195.358647     88.779857
PR02 -24335.533113     87.548935  -7723.222069    501.685745
PR03 -12440.311297   8179.573776 -20693.574384     47.282569
PR04   6276.863264  11305.738914 -21964.595923    116.525505
PR05  21412.740811   8363.727927 -11020.513014     83.321520
PR06  23925.096340  -1429.842840   8672.502513    -18.576788
PR07  11643.951188  -8460.228280  21075.745607    -39.613110
PR08  -6385.288783 -11433.867641  21942.832020    -62.269445
PR09  17518.415018 -10914.210424  15053.444693     26.127747
PR10  15318.813394 -20344.706433   -146.156466    -77.513590
PR11   4324.941332 -18802.761249 -16680.204458 999999.999999
PR12  -9610.397355  -5474.335353 -22960.017162    282.420733
PR13 -17191.855618  10134.271094 -15904.715723    -64.159015
PR14 -14943.655009  20613.116638   1485.913621     71.526640
PR15  -3952.593723  18480.181934  17154.427956     99.906374
PR16  10597.763252   4292.828005  22770.850763    -25.876821
PR17  -3184.190788  16058.704369  19592.274539    479.181396
PR18   6445.728862  23920.570123   5999.907173     98.816039
PR19  11980.697728  20216.110061  -9928.968161   -168.810914
PR20  11469.813550   2216.325166 -22657.443559    -60.261400
PR21   2417.520038 -17016.685830 -18828.717521   -258.356453
PR22  -6850.596009 -24106.083773  -5012.069395   -148.264572
PR23 -13274.356799 -15490.554017  15308.861574    -21.642186
PR24 -11754.695869  -1074.914091  22632.658952     69.023940
EOF
